COSMOS 1892             
1 18421U 87088A   19207.17106779  .00000521  00000-0  24698-4 0  9995
2 18421  82.4987 237.3778 0016698 119.7334 240.5563 15.16864337735151
SL-14 R/B               
1 18749U 88001B   19206.83351178  .00000046  00000-0  27529-5 0  9990
2 18749  82.5157 304.6590 0017386 300.3286 199.1831 14.83192397683302
COSMOS 1933             
1 18958U 88020A   19206.78932133  .00000347  00000-0  23266-4 0  9990
2 18958  82.5288  81.9787 0011307 179.3168 180.8076 15.03608977685840
SL-3 R/B                
1 19046U 88032B   19206.83439902  .00000871  00000-0  68936-4 0  9999
2 19046  97.4339 236.8506 0037151 240.1402 119.6130 15.02594609687763
SL-16 R/B               
1 19120U 88039B   19206.86215301 -.00000055  00000-0 -32911-5 0  9998
2 19120  71.0141 140.7296 0019745  89.5538 270.7849 14.19193106615174
COSMOS 1953             
1 19210U 88050A   19206.85915002  .00000852  00000-0  56681-4 0  9997
2 19210  82.5168   7.7625 0013695 151.5285 208.6694 15.05803395693498
SL-8 R/B                
1 19257U 88053B   19206.58434897  .00000066  00000-0  30957-4 0  9994
2 19257  74.0475 243.8262 0021586 302.5092 168.2303 14.37444105629174
COSMOS 1975             
1 19573U 88093A   19206.79615764  .00000710  00000-0  48340-4 0  9997
2 19573  82.5216 321.4980 0013744 194.2171 165.8670 15.04710985654235
SL-14 R/B               
1 19574U 88093B   19207.33106872  .00000063  00000-0  46626-5 0  9991
2 19574  82.5335 145.9317 0023201  99.9160  15.1280 14.83302437663463
SL-16 R/B               
1 19650U 88102B   19206.44176904  .00000132  00000-0  91645-4 0  9998
2 19650  70.9968 199.6440 0012125  94.4498 265.8011 14.15782305584459
INTERCOSMOS 24          
1 20261U 89080A   19207.52907365  .00000176  00000-0  43011-4 0  9999
2 20261  82.6033 231.8037 1204137 122.1733 250.1925 12.56090507362545
SL-14 R/B               
1 20262U 89080C   19207.24966157  .00000016  00000-0  39760-5 0  9993
2 20262  82.5947 283.5077 1236342 303.2360  45.6084 12.48918427357715
DELTA 2 R/B(1)          
1 20303U 89085B   19207.45180464  .00000689  00000-0  24895-4 0  9994
2 20303  35.6240 263.3413 0097128 150.6218 210.0015 15.26316142618052
DELTA 1 R/B             
1 20323U 89089B   19207.50821646 -.00000009  00000-0  67533-5 0  9994
2 20323  97.0670  41.2977 0071767 179.1446 180.9887 14.48309007566072
DELTA 2 R/B(1)          
1 20362U 89097B   19207.20021274  .00017986  00000-0  10695-3 0  9998
2 20362  35.6003 172.7488 0025999 332.4604 111.1964 15.76527198620221
ARIANE 40 R/B           
1 20443U 90005H   19206.73466103 -.00000024  00000-0  68380-5 0  9992
2 20443  98.6230 263.2424 0009466 234.5288 125.5016 14.38065674545270
DELTA 2 R/B(1)          
1 20453U 90008B   19207.51095138  .00000801  00000-0  48753-4 0  9992
2 20453  35.6251  23.3108 0281947  96.9128 266.3742 14.84935974562569
COSMOS 2058             
1 20465U 90010A   19206.59634640  .00000156  00000-0  10914-4 0  9993
2 20465  82.4876 228.7955 0014364 221.3901 138.6235 14.97889094579242
SL-14 R/B               
1 20466U 90010B   19207.01096854  .00000051  00000-0  35506-5 0  9990
2 20466  82.5029  13.1962 0019867 337.2653  22.7679 14.81359747591319
SL-14 R/B               
1 20511U 90018B   19206.84417992  .00000072  00000-0  64054-5 0  9992
2 20511  82.5249 318.2660 0018944 110.8099   6.6986 14.80016647564659
HST                     
1 20580U 90037B   19207.02432872  .00000322  00000-0  86429-5 0  9992
2 20580  28.4702 325.0760 0002680 162.3415 163.8287 15.09247622406532
SL-16 R/B               
1 20625U 90046B   19206.76466414  .00000160  00000-0  10799-3 0  9996
2 20625  70.9997 336.0008 0013651  12.0101 348.1344 14.14640820506276
COSMOS 2084             
1 20663U 90055A   19206.38927343 -.00000093  00000-0  96912-5 0  9998
2 20663  62.7931 183.4908 0070237 173.2481 186.9577 14.91993814574407
SL-6 R/B(2)             
1 20666U 90055D   19207.23516026 -.00000093  00000-0  90501-5 0  9996
2 20666  62.7867  97.8161 0036325 213.2349 146.6464 14.92256751575935
SL-8 R/B                
1 20775U 90078B   19206.82934050  .00000923  00000-0  42480-4 0  9990
2 20775  82.9288 136.6102 0578285 128.8381 236.5916 14.33399545458796
SL-8 R/B                
1 21088U 91006B   19207.44567749 -.00000022  00000-0 -36986-4 0  9992
2 21088  82.9433 168.3534 0021890 330.2721 145.5794 13.77117261431478
OKEAN-3                 
1 21397U 91039A   19206.82163768  .00000153  00000-0  12230-4 0  9994
2 21397  82.5232 128.1000 0017655 180.9116 179.2075 14.92820090503383
COSMOS 2151             
1 21422U 91042A   19206.59479456  .00000109  00000-0  81777-5 0  9999
2 21422  82.4987 235.0699 0012699 245.4322 114.5575 14.92057929501994
SL-14 R/B               
1 21423U 91042B   19206.77996017  .00000020  00000-0 -38177-6 0  9997
2 21423  82.4954 323.1407 0016177 251.5354 108.4101 14.79766825495203
ERS-1                   
1 21574U 91050A   19206.83605982  .00000003  00000-0  15556-4 0  9992
2 21574  98.5515 155.9599 0032853 180.4604 179.6557 14.37702552468049
ARIANE 40 R/B           
1 21610U 91050F   19207.19797608 -.00000018  00000-0  82426-5 0  9998
2 21610  98.5065 273.9501 0003903 144.7615 276.0350 14.40877003470856
INTERCOSMOS 25          
1 21819U 91086A   19206.81132289 -.00000214  00000-0 -44459-4 0  9996
2 21819  82.5992 322.3655 1515027 250.1826  93.0078 12.05037078204825
SL-8 R/B                
1 21876U 92008B   19207.21856377  .00000038  00000-0  23755-4 0  9998
2 21876  82.9260 265.6302 0035791  49.2342   9.1644 13.75636414377119
SL-8 R/B                
1 21938U 92020B   19207.22610688 -.00000011  00000-0 -27699-4 0  9999
2 21938  82.9315 149.5238 0028440 204.1692 264.4039 13.75269117368992
COSMOS 2219             
1 22219U 92076A   19206.80728552 -.00000204  00000-0 -83037-4 0  9998
2 22219  71.0610  32.1500 0020751 292.6635  67.2293 14.13642170376512
SL-16 R/B               
1 22220U 92076B   19207.54935875 -.00000261  00000-0 -10726-3 0  9997
2 22220  70.9981 239.7334 0013132 190.9532 330.5434 14.16444574379713
COSMOS 2221             
1 22236U 92080A   19206.64177752  .00000109  00000-0  91833-5 0  9990
2 22236  82.5066  53.3782 0015987 334.8260  25.2176 14.87842471441578
SL-16 R/B               
1 22285U 92093B   19206.86209075  .00000268  00000-0  16278-3 0  9990
2 22285  71.0215  39.7608 0003434   8.4902 351.6278 14.15033564370999
COSMOS 2228             
1 22286U 92094A   19206.84319644  .00000118  00000-0  99957-5 0  9995
2 22286  82.5202   9.0194 0022771  89.5310 270.8517 14.88057404415729
SL-16 R/B               
1 22566U 93016B   19207.50708834  .00000116  00000-0  84771-4 0  9993
2 22566  71.0067 252.0477 0009042  32.2184 327.9489 14.14962020360095
COSMOS 2242             
1 22626U 93024A   19206.65498697  .00000115  00000-0  97669-5 0  9997
2 22626  82.5206  37.1902 0020558  89.7486 270.6087 14.87917805420115
SL-16 R/B               
1 22803U 93059B   19206.80963674  .00000131  00000-0  89011-4 0  9990
2 22803  70.9902  69.7352 0019209 292.3068  67.6018 14.16809173336894
ARIANE 40 R/B           
1 22830U 93061H   19207.10466489 -.00000039  00000-0  27283-5 0  9991
2 22830  98.8122 247.3787 0010637 194.8830 165.2041 14.31437023348243
COSMOS 2278             
1 23087U 94023A   19207.37101672 -.00000138  00000-0 -47799-4 0  9998
2 23087  71.0509 191.3100 0007210 130.7794 229.3955 14.13783402303217
SL-16 R/B               
1 23088U 94023B   19207.30487673 -.00000240  00000-0 -99784-4 0  9995
2 23088  71.0013 107.7795 0003866 333.0225  27.0696 14.14683218304311
SL-16 R/B               
1 23343U 94074B   19206.79490611 -.00000015  00000-0  52619-5 0  9999
2 23343  98.0492 256.7133 0008089 119.7674  14.0895 14.76784826330057
SL-16 R/B               
1 23405U 94077B   19206.80570730 -.00000144  00000-0 -49351-4 0  9996
2 23405  70.9813  39.3679 0004642 249.9489 110.1134 14.15208799274002
ERS-2                   
1 23560U 95021A   19206.82778262  .00000547  00000-0  27332-4 0  9990
2 23560  98.5065 311.5452 0003128 187.6046 172.5140 15.22624931292253
ARIANE 40+ R/B          
1 23561U 95021B   19206.72593958 -.00000004  00000-0  13854-4 0  9990
2 23561  98.7639 235.1275 0007706 138.3347 332.7981 14.37929133271695
SL-16 R/B               
1 23705U 95058B   19207.45283086 -.00000275  00000-0 -11732-3 0  9992
2 23705  71.0191 215.0413 0013750 214.4187 145.6047 14.15126292226018
SL-16 R/B               
1 24298U 96051B   19206.69405408  .00000050  00000-0  53190-4 0  9997
2 24298  70.8258 241.6228 0014358 131.6538 228.5814 14.12413225180071
ORBVIEW 2 (SEASTAR)     
1 24883U 97037A   19206.84080869  .00000000  00000-0  16002-4 0  9995
2 24883  98.5877 317.2714 0002399  23.4995 336.6299 14.33512677162030
SL-16 R/B               
1 25400U 98043G   19206.84116501 -.00000029  00000-0  60763-5 0  9998
2 25400  98.5732 144.4245 0009355 204.5329 155.5407 14.25442176 94341
SL-16 R/B               
1 25407U 98045B   19206.51068250  .00000133  00000-0  92139-4 0  9994
2 25407  71.0099 226.7937 0005796 125.0417 235.1250 14.15790270 84937
ISS (ZARYA)             
1 25544U 98067A   19207.74075282  .00000423  00000-0  14996-4 0  9996
2 25544  51.6436 165.0286 0006540 181.7628 248.1962 15.51003214181399
SL-8 R/B                
1 25723U 99022C   19206.86007909  .00006427  00000-0  66329-4 0  9997
2 25723  48.4143 352.4027 0007175 185.2844 174.8031 15.66071768126516
CZ-4B R/B               
1 25732U 99025C   19206.72115815 -.00000049  00000-0 -16078-5 0  9994
2 25732  98.9746 227.6117 0038346  64.9156  50.4423 14.17665807 45524
OKEAN-O                 
1 25860U 99039A   19207.49112793  .00000016  00000-0  99466-5 0  9992
2 25860  98.2259 215.5127 0001345 114.3207 245.8143 14.76614476 77357
SL-16 R/B               
1 25861U 99039B   19206.99213361  .00000005  00000-0  82297-5 0  9992
2 25861  98.1901 197.9927 0016753 126.6739 296.2395 14.78537675 79377
